{"type": "FeatureCollection", "features": [ {"type": "Feature", "properties": {"norad_id": 42969, "name": "SENTINEL-5P", "group": "resource", "lat": 66.28344000573381, "lon": -91.38792973169464, "alt_km": 819.8047774980378, "timestamp": "2025-12-16T15:45:50.671846+00:00", "meta": {"OBJECT_NAME": "SENTINEL-5P", "OBJECT_ID": "2017-064A", "EPOCH": "2025-12-15T19:08:43.842624", "MEAN_MOTION": 14.19518328, "ECCENTRICITY": 9.964e-05, "INCLINATION": 98.7787, "RA_OF_ASC_NODE": 288.3547, "ARG_OF_PERICENTER": 88.7839, "MEAN_ANOMALY": 271.3451, "EPHEMERIS_TYPE": 0, "CLASSIFICATION_TYPE": "U", "NORAD_CAT_ID": 42969, "ELEMENT_SET_NO": 999, "REV_AT_EPOCH": 42354, "BSTAR": 5.787899e-05, "MEAN_MOTION_DOT": 7.8e-07, "MEAN_MOTION_DDOT": 0}, "tle": {"line1": "1 42969U 17064A   25349.79772966  .00000078  00000+0  57879-4 0  9998", "line2": "2 42969  98.7787 288.3547 0000996  88.7839 271.3451 14.19518328423545"}}, "geometry": {"type": "Point", "coordinates": [-91.38792973169464, 66.28344000573381]}}, {"type": "Feature", "properties": {"norad_id": 42987, "name": "SKYSAT-C11", "group": "resource", "lat": -3.903428211300069, "lon": -52.26365310181761, "alt_km": 427.23194031135245, "timestamp": "2025-12-16T15:45:50.671862+00:00", "meta": {"OBJECT_NAME": "SKYSAT-C11", "OBJECT_ID": "2017-068A", "EPOCH": "2025-12-15T21:54:09.137664", "MEAN_MOTION": 15.47585629, "ECCENTRICITY": 0.00011396, "INCLINATION": 97.4135, "RA_OF_ASC_NODE": 127.4828, "ARG_OF_PERICENTER": 104.2788, "MEAN_ANOMALY": 255.8588, "EPHEMERIS_TYPE": 0, "CLASSIFICATION_TYPE": "U", "NORAD_CAT_ID": 42987, "ELEMENT_SET_NO": 999, "REV_AT_EPOCH": 45480, "BSTAR": 0.00033526081, "MEAN_MOTION_DOT": 0.00017192, "MEAN_MOTION_DDOT": 0}, "tle": {"line1": "1 42987U 17068A   25349.91260576  .00017192  00000+0  33526-3 0  9992", "line2": "2 42987  97.4135 127.4828 0001139 104.2788 255.8588 15.47585629454801"}}, "geometry": {"type": "Point", "coordinates": [-52.26365310181761, -3.903428211300069]}}, {"type": "Feature", "properties": {"norad_id": 42988, "name": "SKYSAT-C10", "group": "resource", "lat": 46.444326916143154, "lon": 113.63414486724075, "alt_km": 462.7860762645305, "timestamp": "2025-12-16T15:45:50.671878+00:00", "meta": {"OBJECT_NAME": "SKYSAT-C10", "OBJECT_ID": "2017-068B", "EPOCH": "2025-12-15T20:45:01.846080", "MEAN_MOTION": 15.32132279, "ECCENTRICITY": 0.00054171, "INCLINATION": 97.4254, "RA_OF_ASC_NODE": 120.7238, "ARG_OF_PERICENTER": 94.8783, "MEAN_ANOMALY": 265.3078, "EPHEMERIS_TYPE": 0, "CLASSIFICATION_TYPE": "U", "NORAD_CAT_ID": 42988, "ELEMENT_SET_NO": 999, "REV_AT_EPOCH": 45427, "BSTAR": 0.00027513287, "MEAN_MOTION_DOT": 8.461e-05, "MEAN_MOTION_DDOT": 0}, "tle": {"line1": "1 42988U 17068B   25349.86460470  .00008461  00000+0  27513-3 0  9990", "line2": "2 42988  97.4254 120.7238 0005417  94.8783 265.3078 15.32132279454271"}}, "geometry": {"type": "Point", "coordinates": [113.63414486724075, 46.444326916143154]}}, {"type": "Feature", "properties": {"norad_id": 42989, "name": "SKYSAT-C9", "group": "resource", "lat": -48.73916695212657, "lon": 129.4820720757857, "alt_km": 468.4786985409128, "timestamp": "2025-12-16T15:45:50.671894+00:00", "meta": {"OBJECT_NAME": "SKYSAT-C9", "OBJECT_ID": "2017-068C", "EPOCH": "2025-12-15T21:13:04.651104", "MEAN_MOTION": 15.36134031, "ECCENTRICITY": 0.00106089, "INCLINATION": 97.4184, "RA_OF_ASC_NODE": 120.1623, "ARG_OF_PERICENTER": 77.5516, "MEAN_ANOMALY": 282.6914, "EPHEMERIS_TYPE": 0, "CLASSIFICATION_TYPE": "U", "NORAD_CAT_ID": 42989, "ELEMENT_SET_NO": 999, "REV_AT_EPOCH": 45456, "BSTAR": 0.00028086246, "MEAN_MOTION_DOT": 9.824e-05, "MEAN_MOTION_DDOT": 0}, "tle": {"line1": "1 42989U 17068C   25349.88408161  .00009824  00000+0  28086-3 0  9992", "line2": "2 42989  97.4184 120.1623 0010608  77.5516 282.6914 15.36134031454561"}}, "geometry": {"type": "Point", "coordinates": [129.4820720757857, -48.73916695212657]}}, {"type": "Feature", "properties": {"norad_id": 42990, "name": "SKYSAT-C8", "group": "resource", "lat": -56.858918988626144, "lon": -70.85233058460935, "alt_km": 474.01871153164393, "timestamp": "2025-12-16T15:45:50.671910+00:00", "meta": {"OBJECT_NAME": "SKYSAT-C8", "OBJECT_ID": "2017-068D", "EPOCH": "2025-12-15T21:29:54.959136", "MEAN_MOTION": 15.3299405, "ECCENTRICITY": 0.00013672, "INCLINATION": 97.4276, "RA_OF_ASC_NODE": 119.9093, "ARG_OF_PERICENTER": 333.5315, "MEAN_ANOMALY": 26.5857, "EPHEMERIS_TYPE": 0, "CLASSIFICATION_TYPE": "U", "NORAD_CAT_ID": 42990, "ELEMENT_SET_NO": 999, "REV_AT_EPOCH": 45419, "BSTAR": 0.00028382232, "MEAN_MOTION_DOT": 8.968e-05, "MEAN_MOTION_DDOT": 0}, "tle": {"line1": "1 42990U 17068D   25349.89577499  .00008968  00000+0  28382-3 0  9993", "line2": "2 42990  97.4276 119.9093 0001367 333.5315  26.5857 15.32994050454197"}}, "geometry": {"type": "Point", "coordinates": [-70.85233058460935, -56.858918988626144]}}, {"type": "Feature", "properties": {"norad_id": 42991, "name": "SKYSAT-C7", "group": "resource", "lat": 80.83712053912757, "lon": 67.72532994152283, "alt_km": 457.3127636295221, "timestamp": "2025-12-16T15:45:50.671926+00:00", "meta": {"OBJECT_NAME": "SKYSAT-C7", "OBJECT_ID": "2017-068E", "EPOCH": "2025-12-15T22:09:27.743328", "MEAN_MOTION": 15.32396675, "ECCENTRICITY": 0.00074692, "INCLINATION": 97.4283, "RA_OF_ASC_NODE": 120.9755, "ARG_OF_PERICENTER": 46.9629, "MEAN_ANOMALY": 313.2237, "EPHEMERIS_TYPE": 0, "CLASSIFICATION_TYPE": "U", "NORAD_CAT_ID": 42991, "ELEMENT_SET_NO": 999, "REV_AT_EPOCH": 45426, "BSTAR": 0.00028253871, "MEAN_MOTION_DOT": 8.767e-05, "MEAN_MOTION_DDOT": 0}, "tle": {"line1": "1 42991U 17068E   25349.92323777  .00008767  00000+0  28254-3 0  9991", "line2": "2 42991  97.4283 120.9755 0007469  46.9629 313.2237 15.32396675454260"}}, "geometry": {"type": "Point", "coordinates": [67.72532994152283, 80.83712053912757]}}, {"type": "Feature", "properties": {"norad_id": 42992, "name": "SKYSAT-C6", "group": "resource", "lat": -9.789820402179835, "lon": -59.14367301254017, "alt_km": 477.08849346483566, "timestamp": "2025-12-16T15:45:50.671942+00:00", "meta": {"OBJECT_NAME": "SKYSAT-C6", "OBJECT_ID": "2017-068F", "EPOCH": "2025-12-15T21:41:24.679968", "MEAN_MOTION": 15.31557041, "ECCENTRICITY": 0.00051338, "INCLINATION": 97.4317, "RA_OF_ASC_NODE": 121.3919, "ARG_OF_PERICENTER": 73.982, "MEAN_ANOMALY": 286.1986, "EPHEMERIS_TYPE": 0, "CLASSIFICATION_TYPE": "U", "NORAD_CAT_ID": 42992, "ELEMENT_SET_NO": 999, "REV_AT_EPOCH": 45424, "BSTAR": 0.00026858762, "MEAN_MOTION_DOT": 8.11e-05, "MEAN_MOTION_DDOT": 0}, "tle": {"line1": "1 42992U 17068F   25349.90375787  .00008110  00000+0  26859-3 0  9999", "line2": "2 42992  97.4317 121.3919 0005133  73.9820 286.1986 15.31557041454247"}}, "geometry": {"type": "Point", "coordinates": [-59.14367301254017, -9.789820402179835]}}, {"type": "Feature", "properties": {"norad_id": 43111, "name": "CARTOSAT-2F", "group": "resource", "lat": 55.38888964442269, "lon": -120.86580699005306, "alt_km": 501.8844180679316, "timestamp": "2025-12-16T15:45:50.671958+00:00", "meta": {"OBJECT_NAME": "CARTOSAT-2F", "OBJECT_ID": "2018-004A", "EPOCH": "2025-12-15T23:24:51.134112", "MEAN_MOTION": 15.19310647, "ECCENTRICITY": 0.00011982, "INCLINATION": 97.4318, "RA_OF_ASC_NODE": 47.5613, "ARG_OF_PERICENTER": 143.5219, "MEAN_ANOMALY": 216.6098, "EPHEMERIS_TYPE": 0, "CLASSIFICATION_TYPE": "U", "NORAD_CAT_ID": 43111, "ELEMENT_SET_NO": 999, "REV_AT_EPOCH": 43951, "BSTAR": 0.00021631323, "MEAN_MOTION_DOT": 4.499e-05, "MEAN_MOTION_DDOT": 0}, "tle": {"line1": "1 43111U 18004A   25349.97559183  .00004499  00000+0  21631-3 0  9994", "line2": "2 43111  97.4318  47.5613 0001198 143.5219 216.6098 15.19310647439515"}}, "geometry": {"type": "Point", "coordinates": [-120.86580699005306, 55.38888964442269]}}, {"type": "Feature", "properties": {"norad_id": 43259, "name": "GAOFEN-1 02", "group": "resource", "lat": 6.5224297483241775, "lon": 47.51684522040434, "alt_km": 644.0557489632201, "timestamp": "2025-12-16T15:45:50.671975+00:00", "meta": {"OBJECT_NAME": "GAOFEN-1 02", "OBJECT_ID": "2018-031A", "EPOCH": "2025-12-15T23:28:08.285088", "MEAN_MOTION": 14.76421962, "ECCENTRICITY": 0.00019232, "INCLINATION": 98.0807, "RA_OF_ASC_NODE": 47.7684, "ARG_OF_PERICENTER": 205.1227, "MEAN_ANOMALY": 154.989, "EPHEMERIS_TYPE": 0, "CLASSIFICATION_TYPE": "U", "NORAD_CAT_ID": 43259, "ELEMENT_SET_NO": 999, "REV_AT_EPOCH": 41566, "BSTAR": 8.0155193e-05, "MEAN_MOTION_DOT": 5.05e-06, "MEAN_MOTION_DDOT": 0}, "tle": {"line1": "1 43259U 18031A   25349.97787367  .00000505  00000+0  80155-4 0  9995", "line2": "2 43259  98.0807  47.7684 0001923 205.1227 154.9890 14.76421962415667"}}, "geometry": {"type": "Point", "coordinates": [47.51684522040434, 6.5224297483241775]}}, {"type": "Feature", "properties": {"norad_id": 43260, "name": "GAOFEN-1 03", "group": "resource", "lat": 56.86484502330153, "lon": -119.10700933327486, "alt_km": 636.3951730325998, "timestamp": "2025-12-16T15:45:50.671991+00:00", "meta": {"OBJECT_NAME": "GAOFEN-1 03", "OBJECT_ID": "2018-031B", "EPOCH": "2025-12-16T00:34:26.117760", "MEAN_MOTION": 14.76443626, "ECCENTRICITY": 0.00018196, "INCLINATION": 98.0795, "RA_OF_ASC_NODE": 47.691, "ARG_OF_PERICENTER": 306.0436, "MEAN_ANOMALY": 54.0604, "EPHEMERIS_TYPE": 0, "CLASSIFICATION_TYPE": "U", "NORAD_CAT_ID": 43260, "ELEMENT_SET_NO": 999, "REV_AT_EPOCH": 41566, "BSTAR": 0.00013346007, "MEAN_MOTION_DOT": 8.76e-06, "MEAN_MOTION_DDOT": 0}, "tle": {"line1": "1 43260U 18031B   25350.02391340  .00000876  00000+0  13346-3 0  9995", "line2": "2 43260  98.0795  47.6910 0001819 306.0436  54.0604 14.76443626415667"}}, "geometry": {"type": "Point", "coordinates": [-119.10700933327486, 56.86484502330153]}}]}